MR-2                    
1 67556U 26015A   26045.11594581  .00000052  00000+0  59966-4 0  9999
2 67556  88.9971 281.0592 0005119  81.0095 279.1637 13.52686188  3072
MR-1                    
1 67557U 26015B   26045.19033129  .00000063  00000+0  76629-4 0  9991
2 67557  88.9971 281.0520 0005194  79.5776 280.5961 13.52661305  3086
ELECTRON R/B            
1 67558U 26015C   26045.08739200  .02779257 -11433-5  15488-2 0  9996
2 67558  88.9854 280.3811 0390277 186.1946 173.4420 15.45890940  3415
ELECTRON KICK STAGE R/B 
1 67559U 26015D   26045.20276958  .00059105  10147-6  99663-3 0  9997
2 67559  89.0511 280.6823 0528725 255.6011  98.5990 14.68140430  3347
STARLINK-36426          
1 67560U 26014AA  26045.29354762 -.00817745  00000+0 -50641-2 0  9993
2 67560  97.2860 289.1183 0001371 157.9028 202.2299 15.79107322  4887
STARLINK-36621          
1 67561U 26016A   26045.25002315  .00028179  00000+0  18928-3 0  9992
2 67561  97.2840 104.5005 0001223  83.5736  78.3414 15.75176177  4280
STARLINK-36398          
1 67562U 26016B   26045.22888527  .00173682  00000+0  11394-2 0  9996
2 67562  97.2841 104.4568 0001203  94.1128 266.0274 15.75238226  3100
STARLINK-36403          
1 67563U 26016C   26045.14281534  .00191783  00000+0  97374-3 0  9998
2 67563  97.2835 104.4238 0001513  54.3053 305.8356 15.80959324  3093
STARLINK-36593          
1 67564U 26016D   26045.20490799  .00126615  00000+0  65028-3 0  9994
2 67564  97.2839 104.4921 0001341  85.2674 274.8748 15.80880953  3101
STARLINK-35725          
1 67565U 26016E   26045.25002315 -.00050357  00000+0 -33844-3 0  9995
2 67565  97.2845 104.5285 0001312  83.1219 148.7707 15.75209985  4270
STARLINK-36394          
1 67566U 26016F   26045.25002315 -.00007163  00000+0 -47187-4 0  9999
2 67566  97.2854 104.5216 0001241  99.8620 122.0418 15.75192521  4389
STARLINK-36352          
1 67567U 26016G   26045.20124406  .00177405  00000+0  90560-3 0  9998
2 67567  97.2850 104.4925 0001259 102.9885 257.1524 15.80879186  3102
