CCSDS_OMM_VERS = 2.0
CREATION_DATE  = 
ORIGINATOR     = 

OBJECT_NAME    = MR-2
OBJECT_ID      = 2026-015A
CENTER_NAME    = EARTH
REF_FRAME      = TEME
TIME_SYSTEM    = UTC
MEAN_ELEMENT_THEORY = SGP/SGP4

EPOCH          = 2026-02-14T02:46:57.717984
MEAN_MOTION    = 13.52686188
ECCENTRICITY   = .00051194
INCLINATION    = 88.9971
RA_OF_ASC_NODE = 281.0592
ARG_OF_PERICENTER = 81.0095
MEAN_ANOMALY   = 279.1637

EPHEMERIS_TYPE = 0
CLASSIFICATION_TYPE = U
NORAD_CAT_ID   = 67556
ELEMENT_SET_NO = 999
REV_AT_EPOCH   = 307
BSTAR          = .59966109E-4
MEAN_MOTION_DOT = .52E-6
MEAN_MOTION_DDOT = 0

CCSDS_OMM_VERS = 2.0
CREATION_DATE  = 
ORIGINATOR     = 

OBJECT_NAME    = MR-1
OBJECT_ID      = 2026-015B
CENTER_NAME    = EARTH
REF_FRAME      = TEME
TIME_SYSTEM    = UTC
MEAN_ELEMENT_THEORY = SGP/SGP4

EPOCH          = 2026-02-14T04:34:04.623456
MEAN_MOTION    = 13.52661305
ECCENTRICITY   = .00051947
INCLINATION    = 88.9971
RA_OF_ASC_NODE = 281.0520
ARG_OF_PERICENTER = 79.5776
MEAN_ANOMALY   = 280.5961

EPHEMERIS_TYPE = 0
CLASSIFICATION_TYPE = U
NORAD_CAT_ID   = 67557
ELEMENT_SET_NO = 999
REV_AT_EPOCH   = 308
BSTAR          = .76629161E-4
MEAN_MOTION_DOT = .63E-6
MEAN_MOTION_DDOT = 0

CCSDS_OMM_VERS = 2.0
CREATION_DATE  = 
ORIGINATOR     = 

OBJECT_NAME    = ELECTRON R/B
OBJECT_ID      = 2026-015C
CENTER_NAME    = EARTH
REF_FRAME      = TEME
TIME_SYSTEM    = UTC
MEAN_ELEMENT_THEORY = SGP/SGP4

EPOCH          = 2026-02-14T02:05:50.668800
MEAN_MOTION    = 15.45890940
ECCENTRICITY   = .03902774
INCLINATION    = 88.9854
RA_OF_ASC_NODE = 280.3811
ARG_OF_PERICENTER = 186.1946
MEAN_ANOMALY   = 173.4420

EPHEMERIS_TYPE = 0
CLASSIFICATION_TYPE = U
NORAD_CAT_ID   = 67558
ELEMENT_SET_NO = 999
REV_AT_EPOCH   = 341
BSTAR          = .15487911E-2
MEAN_MOTION_DOT = .2779257E-1
MEAN_MOTION_DDOT = -.1143317E-5

CCSDS_OMM_VERS = 2.0
CREATION_DATE  = 
ORIGINATOR     = 

OBJECT_NAME    = ELECTRON KICK STAGE R/B
OBJECT_ID      = 2026-015D
CENTER_NAME    = EARTH
REF_FRAME      = TEME
TIME_SYSTEM    = UTC
MEAN_ELEMENT_THEORY = SGP/SGP4

EPOCH          = 2026-02-14T04:51:59.291712
MEAN_MOTION    = 14.68140430
ECCENTRICITY   = .05287256
INCLINATION    = 89.0511
RA_OF_ASC_NODE = 280.6823
ARG_OF_PERICENTER = 255.6011
MEAN_ANOMALY   = 98.5990

EPHEMERIS_TYPE = 0
CLASSIFICATION_TYPE = U
NORAD_CAT_ID   = 67559
ELEMENT_SET_NO = 999
REV_AT_EPOCH   = 334
BSTAR          = .99663009E-3
MEAN_MOTION_DOT = .59105E-3
MEAN_MOTION_DDOT = .101465E-6

CCSDS_OMM_VERS = 2.0
CREATION_DATE  = 
ORIGINATOR     = 

OBJECT_NAME    = STARLINK-36426
OBJECT_ID      = 2026-014AA
CENTER_NAME    = EARTH
REF_FRAME      = TEME
TIME_SYSTEM    = UTC
MEAN_ELEMENT_THEORY = SGP/SGP4

EPOCH          = 2026-02-14T07:02:42.514368
MEAN_MOTION    = 15.79107322
ECCENTRICITY   = .00013718
INCLINATION    = 97.2860
RA_OF_ASC_NODE = 289.1183
ARG_OF_PERICENTER = 157.9028
MEAN_ANOMALY   = 202.2299

EPHEMERIS_TYPE = 0
CLASSIFICATION_TYPE = U
NORAD_CAT_ID   = 67560
ELEMENT_SET_NO = 999
REV_AT_EPOCH   = 488
BSTAR          = -.50640904E-2
MEAN_MOTION_DOT = -.817745E-2
MEAN_MOTION_DDOT = 0

CCSDS_OMM_VERS = 2.0
CREATION_DATE  = 
ORIGINATOR     = 

OBJECT_NAME    = STARLINK-36621
OBJECT_ID      = 2026-016A
CENTER_NAME    = EARTH
REF_FRAME      = TEME
TIME_SYSTEM    = UTC
MEAN_ELEMENT_THEORY = SGP/SGP4

EPOCH          = 2026-02-14T06:00:02.000160
MEAN_MOTION    = 15.75176177
ECCENTRICITY   = .0001223
INCLINATION    = 97.2840
RA_OF_ASC_NODE = 104.5005
ARG_OF_PERICENTER = 83.5736
MEAN_ANOMALY   = 78.3414

EPHEMERIS_TYPE = 0
CLASSIFICATION_TYPE = U
NORAD_CAT_ID   = 67561
ELEMENT_SET_NO = 999
REV_AT_EPOCH   = 428
BSTAR          = .18928019E-3
MEAN_MOTION_DOT = .28179E-3
MEAN_MOTION_DDOT = 0

CCSDS_OMM_VERS = 2.0
CREATION_DATE  = 
ORIGINATOR     = 

OBJECT_NAME    = STARLINK-36398
OBJECT_ID      = 2026-016B
CENTER_NAME    = EARTH
REF_FRAME      = TEME
TIME_SYSTEM    = UTC
MEAN_ELEMENT_THEORY = SGP/SGP4

EPOCH          = 2026-02-14T05:29:35.687328
MEAN_MOTION    = 15.75238226
ECCENTRICITY   = .00012038
INCLINATION    = 97.2841
RA_OF_ASC_NODE = 104.4568
ARG_OF_PERICENTER = 94.1128
MEAN_ANOMALY   = 266.0274

EPHEMERIS_TYPE = 0
CLASSIFICATION_TYPE = U
NORAD_CAT_ID   = 67562
ELEMENT_SET_NO = 999
REV_AT_EPOCH   = 310
BSTAR          = .11394078E-2
MEAN_MOTION_DOT = .173682E-2
MEAN_MOTION_DDOT = 0

CCSDS_OMM_VERS = 2.0
CREATION_DATE  = 
ORIGINATOR     = 

OBJECT_NAME    = STARLINK-36403
OBJECT_ID      = 2026-016C
CENTER_NAME    = EARTH
REF_FRAME      = TEME
TIME_SYSTEM    = UTC
MEAN_ELEMENT_THEORY = SGP/SGP4

EPOCH          = 2026-02-14T03:25:39.245376
MEAN_MOTION    = 15.80959324
ECCENTRICITY   = .00015139
INCLINATION    = 97.2835
RA_OF_ASC_NODE = 104.4238
ARG_OF_PERICENTER = 54.3053
MEAN_ANOMALY   = 305.8356

EPHEMERIS_TYPE = 0
CLASSIFICATION_TYPE = U
NORAD_CAT_ID   = 67563
ELEMENT_SET_NO = 999
REV_AT_EPOCH   = 309
BSTAR          = .97373552E-3
MEAN_MOTION_DOT = .191783E-2
MEAN_MOTION_DDOT = 0

CCSDS_OMM_VERS = 2.0
CREATION_DATE  = 
ORIGINATOR     = 

OBJECT_NAME    = STARLINK-36593
OBJECT_ID      = 2026-016D
CENTER_NAME    = EARTH
REF_FRAME      = TEME
TIME_SYSTEM    = UTC
MEAN_ELEMENT_THEORY = SGP/SGP4

EPOCH          = 2026-02-14T04:55:04.050336
MEAN_MOTION    = 15.80880953
ECCENTRICITY   = .00013419
INCLINATION    = 97.2839
RA_OF_ASC_NODE = 104.4921
ARG_OF_PERICENTER = 85.2674
MEAN_ANOMALY   = 274.8748

EPHEMERIS_TYPE = 0
CLASSIFICATION_TYPE = U
NORAD_CAT_ID   = 67564
ELEMENT_SET_NO = 999
REV_AT_EPOCH   = 310
BSTAR          = .65027626E-3
MEAN_MOTION_DOT = .126615E-2
MEAN_MOTION_DDOT = 0

CCSDS_OMM_VERS = 2.0
CREATION_DATE  = 
ORIGINATOR     = 

OBJECT_NAME    = STARLINK-35725
OBJECT_ID      = 2026-016E
CENTER_NAME    = EARTH
REF_FRAME      = TEME
TIME_SYSTEM    = UTC
MEAN_ELEMENT_THEORY = SGP/SGP4

EPOCH          = 2026-02-14T06:00:02.000160
MEAN_MOTION    = 15.75209985
ECCENTRICITY   = .00013124
INCLINATION    = 97.2845
RA_OF_ASC_NODE = 104.5285
ARG_OF_PERICENTER = 83.1219
MEAN_ANOMALY   = 148.7707

EPHEMERIS_TYPE = 0
CLASSIFICATION_TYPE = U
NORAD_CAT_ID   = 67565
ELEMENT_SET_NO = 999
REV_AT_EPOCH   = 427
BSTAR          = -.33844353E-3
MEAN_MOTION_DOT = -.50357E-3
MEAN_MOTION_DDOT = 0

CCSDS_OMM_VERS = 2.0
CREATION_DATE  = 
ORIGINATOR     = 

OBJECT_NAME    = STARLINK-36394
OBJECT_ID      = 2026-016F
CENTER_NAME    = EARTH
REF_FRAME      = TEME
TIME_SYSTEM    = UTC
MEAN_ELEMENT_THEORY = SGP/SGP4

EPOCH          = 2026-02-14T06:00:02.000160
MEAN_MOTION    = 15.75192521
ECCENTRICITY   = .0001241
INCLINATION    = 97.2854
RA_OF_ASC_NODE = 104.5216
ARG_OF_PERICENTER = 99.8620
MEAN_ANOMALY   = 122.0418

EPHEMERIS_TYPE = 0
CLASSIFICATION_TYPE = U
NORAD_CAT_ID   = 67566
ELEMENT_SET_NO = 999
REV_AT_EPOCH   = 438
BSTAR          = -.47187397E-4
MEAN_MOTION_DOT = -.7163E-4
MEAN_MOTION_DDOT = 0

CCSDS_OMM_VERS = 2.0
CREATION_DATE  = 
ORIGINATOR     = 

OBJECT_NAME    = STARLINK-36352
OBJECT_ID      = 2026-016G
CENTER_NAME    = EARTH
REF_FRAME      = TEME
TIME_SYSTEM    = UTC
MEAN_ELEMENT_THEORY = SGP/SGP4

EPOCH          = 2026-02-14T04:49:47.486784
MEAN_MOTION    = 15.80879186
ECCENTRICITY   = .00012597
INCLINATION    = 97.2850
RA_OF_ASC_NODE = 104.4925
ARG_OF_PERICENTER = 102.9885
MEAN_ANOMALY   = 257.1524

EPHEMERIS_TYPE = 0
CLASSIFICATION_TYPE = U
NORAD_CAT_ID   = 67567
ELEMENT_SET_NO = 999
REV_AT_EPOCH   = 310
BSTAR          = .90559529E-3
MEAN_MOTION_DOT = .177405E-2
MEAN_MOTION_DDOT = 0

